STARLINK-32166          
1 60257U 24131C   26002.13236550  .00001910  00000+0  76618-4 0  9998
2 60257  53.1625   1.9232 0001368  93.2441 266.8716 15.30191172 81524
STARLINK-32200          
1 60258U 24131D   26001.99329967 -.00001184  00000+0 -27865-4 0  9992
2 60258  53.1627   2.4720 0001557 121.3356 238.7798 15.30186830 81504
STARLINK-32207          
1 60259U 24131E   26001.27272093 -.00000091  00000+0  90547-5 0  9994
2 60259  53.1609   5.8114 0001310  89.8012 270.3139 15.30194101 81391
STARLINK-32125          
1 60260U 24131F   26002.13296257  .00053368  00000+0  17509-2 0  9998
2 60260  53.1605   1.2136 0002390  97.8841 262.2432 15.31111939 81532
STARLINK-32160          
1 60261U 24131G   26001.99646068 -.00000564  00000+0 -69137-5 0  9990
2 60261  53.1621   2.4921 0001312  79.4595 280.6554 15.30193448 81556
STARLINK-32163          
1 60262U 24131H   26001.44122774  .00000484  00000+0  28483-4 0  9991
2 60262  53.1616   4.7152 0001391 108.9890 251.1261 15.30193133 81420
STARLINK-32148          
1 60263U 24131J   26001.38539769  .00002563  00000+0  98636-4 0  9998
2 60263  53.1613   5.0789 0001686  79.8126 280.3065 15.30204594 81467
STARLINK-32121          
1 60264U 24131K   26001.38857793  .00000601  00000+0  32421-4 0  9990
2 60264  53.1621   5.1013 0001300  87.9239 272.1910 15.30187512 81464
STARLINK-32120          
1 60265U 24131L   26002.13553691 -.00000638  00000+0 -94238-5 0  9992
2 60265  53.1612   1.9359 0001256  82.6354 277.4790 15.30188997 81576
STARLINK-32205          
1 60266U 24131M   26001.98907831 -.00000872  00000+0 -17322-4 0  9992
2 60266  53.1609   2.4575 0001412 113.4927 246.6222 15.30187033 81503
STARLINK-32158          
1 60267U 24131N   26002.15230957 -.00001112  00000+0 -25427-4 0  9994
2 60267  53.1617   1.3280 0001265 102.1889 257.9254 15.30188541 81439
STARLINK-32167          
1 60268U 24131P   26002.13753279 -.00000299  00000+0  20503-5 0  9995
2 60268  53.1617   1.2542 0001446  77.9222 282.1940 15.30197282 81536
STARLINK-32144          
1 60269U 24131Q   26001.38224303  .00000398  00000+0  25580-4 0  9991
2 60269  53.1613   5.0576 0001193 101.8953 258.2181 15.30192505 81465
STARLINK-32211          
1 60270U 24131R   26001.99857172  .00012315  00000+0  42720-3 0  9992
2 60270  53.1618   2.5195 0001519  97.4477 262.6696 15.30201464 81504
STARLINK-32164          
1 60271U 24131S   26002.00279485 -.00000412  00000+0 -17709-5 0  9999
2 60271  53.1623   2.5316 0001525  85.0491 275.0684 15.30191517 81403
STARLINK-32128          
1 60272U 24131T   26001.30004495  .00000700  00000+0  35756-4 0  9998
2 60272  53.1614   5.2577 0001164  83.7121 276.4012 15.30194362 81408
STARLINK-32206          
1 60273U 24131U   26001.27377563  .00002015  00000+0  80169-4 0  9993
2 60273  53.1611   5.8130 0001368  88.1032 272.0125 15.30195544 81391
STARLINK-32155          
1 60274U 24131V   26001.39806521  .00004002  00000+0  14725-3 0  9990
2 60274  53.1622   5.1574 0001815  89.9368 270.1841 15.30185688 81311
STARLINK-32152          
1 60275U 24131W   26001.29687893  .00000782  00000+0  38534-4 0  9995
2 60275  53.1617   5.2360 0001256  88.2836 271.8308 15.30193348 81308
STARLINK-32154          
1 60276U 24131X   26001.22524712  .00010433  00000+0  36445-3 0  9991
2 60276  53.1621   5.4977 0000714  84.4224 275.6858 15.30149611 81392
STARLINK-32135          
1 60277U 24131Y   26001.43805610  .00001087  00000+0  48834-4 0  9995
2 60277  53.1617   4.6914 0001235 108.2701 251.8434 15.30198592 81426
STARLINK-32156          
1 60278U 24132A   26001.29796566 -.00001523  00000+0 -39334-4 0  9992
2 60278  53.1618   5.3745 0001192 100.4456 259.6679 15.30176493 82469
STARLINK-32010          
1 60279U 24132B   26001.33067118  .00000398  00000+0  25557-4 0  9991
2 60279  53.1622   5.5812 0001407  83.3796 276.7365 15.30189550 81242
STARLINK-32118          
1 60280U 24132C   26001.29162308  .00001591  00000+0  65854-4 0  9995
2 60280  53.1630   5.3336 0001636 115.1738 244.9432 15.30194044 81242
STARLINK-32038          
1 60281U 24132D   26001.29373248  .00001066  00000+0  48117-4 0  9993
2 60281  53.1623   5.3485 0001322  95.9507 264.1645 15.30194322 81240
STARLINK-32113          
1 60282U 24132E   26001.94794293 -.00000947  00000+0 -19852-4 0  9996
2 60282  53.1613   2.3173 0001244  87.7897 272.3246 15.30190403 81340
STARLINK-32037          
1 60283U 24132F   26001.44546351  .00000730  00000+0  36760-4 0  9997
2 60283  53.1617   4.8698 0001248 109.6521 250.4614 15.30195801 81260
STARLINK-32123          
1 60284U 24132G   26001.38380718  .00012457  00000+0  43157-3 0  9990
2 60284  53.1605 352.4276 0001355  97.8346 262.2809 15.30234053 81433
STARLINK-32122          
1 60285U 24132H   26001.96166725 -.00004063  00000+0 -12512-3 0  9992
2 60285  53.1622   2.4069 0001002  87.9250 272.1865 15.30199428 81346
STARLINK-31656          
1 60286U 24132J   26002.00376230 -.00001439  00000+0 -36484-4 0  9992
2 60286  53.1618   1.9605 0001409  65.0383 295.0764 15.30188619 81350
