OBJECT_NAME,OBJECT_ID,EPOCH,MEAN_MOTION,ECCENTRICITY,INCLINATION,RA_OF_ASC_NODE,ARG_OF_PERICENTER,MEAN_ANOMALY,EPHEMERIS_TYPE,CLASSIFICATION_TYPE,NORAD_CAT_ID,ELEMENT_SET_NO,REV_AT_EPOCH,BSTAR,MEAN_MOTION_DOT,MEAN_MOTION_DDOT
STARLINK-32166,2024-131C,2026-01-02T03:10:36.379200,15.30191172,.0001368,53.1625,1.9232,93.2441,266.8716,0,U,60257,999,8152,.76618E-4,.191E-4,0
STARLINK-32200,2024-131D,2026-01-01T23:50:21.091488,15.30186830,.0001557,53.1627,2.4720,121.3356,238.7798,0,U,60258,999,8150,-.27865E-4,-.1184E-4,0
STARLINK-32207,2024-131E,2026-01-01T06:32:43.088352,15.30194101,.000131,53.1609,5.8114,89.8012,270.3139,0,U,60259,999,8139,.90547E-5,-.91E-6,0
STARLINK-32125,2024-131F,2026-01-02T03:11:27.966048,15.31111939,.000239,53.1605,1.2136,97.8841,262.2432,0,U,60260,999,8153,.17509E-2,.53368E-3,0
STARLINK-32160,2024-131G,2026-01-01T23:54:54.202752,15.30193448,.0001312,53.1621,2.4921,79.4595,280.6554,0,U,60261,999,8155,-.69137E-5,-.564E-5,0
STARLINK-32163,2024-131H,2026-01-01T10:35:22.076736,15.30193133,.0001391,53.1616,4.7152,108.9890,251.1261,0,U,60262,999,8142,.28483E-4,.484E-5,0
STARLINK-32148,2024-131J,2026-01-01T09:14:58.360416,15.30204594,.0001686,53.1613,5.0789,79.8126,280.3065,0,U,60263,999,8146,.98636E-4,.2563E-4,0
STARLINK-32121,2024-131K,2026-01-01T09:19:33.133152,15.30187512,.00013,53.1621,5.1013,87.9239,272.1910,0,U,60264,999,8146,.32421E-4,.601E-5,0
STARLINK-32120,2024-131L,2026-01-02T03:15:10.389024,15.30188997,.0001256,53.1612,1.9359,82.6354,277.4790,0,U,60265,999,8157,-.94238E-5,-.638E-5,0
STARLINK-32205,2024-131M,2026-01-01T23:44:16.365984,15.30187033,.0001412,53.1609,2.4575,113.4927,246.6222,0,U,60266,999,8150,-.17322E-4,-.872E-5,0
STARLINK-32158,2024-131N,2026-01-02T03:39:19.546848,15.30188541,.0001265,53.1617,1.3280,102.1889,257.9254,0,U,60267,999,8143,-.25427E-4,-.1112E-4,0
STARLINK-32167,2024-131P,2026-01-02T03:18:02.833056,15.30197282,.0001446,53.1617,1.2542,77.9222,282.1940,0,U,60268,999,8153,.20503E-5,-.299E-5,0
STARLINK-32144,2024-131Q,2026-01-01T09:10:25.797792,15.30192505,.0001193,53.1613,5.0576,101.8953,258.2181,0,U,60269,999,8146,.2558E-4,.398E-5,0
STARLINK-32211,2024-131R,2026-01-01T23:57:56.596608,15.30201464,.00015195,53.1618,2.5195,97.4477,262.6696,0,U,60270,999,8150,.42719689E-3,.12315E-3,0
STARLINK-32164,2024-131S,2026-01-02T00:04:01.475040,15.30191517,.00015259,53.1623,2.5316,85.0491,275.0684,0,U,60271,999,8140,-.1770856E-5,-.412E-5,0
STARLINK-32128,2024-131T,2026-01-01T07:12:03.883680,15.30194362,.0001164,53.1614,5.2577,83.7121,276.4012,0,U,60272,999,8140,.35756E-4,.7E-5,0
STARLINK-32206,2024-131U,2026-01-01T06:34:14.214432,15.30195544,.0001368,53.1611,5.8130,88.1032,272.0125,0,U,60273,999,8139,.80169E-4,.2015E-4,0
STARLINK-32155,2024-131V,2026-01-01T09:33:12.834144,15.30185688,.0001815,53.1622,5.1574,89.9368,270.1841,0,U,60274,999,8131,.14725E-3,.4002E-4,0
STARLINK-32152,2024-131W,2026-01-01T07:07:30.339552,15.30193348,.0001256,53.1617,5.2360,88.2836,271.8308,0,U,60275,999,8130,.38534E-4,.782E-5,0
STARLINK-32154,2024-131X,2026-01-01T05:24:21.351168,15.30149611,.0000714,53.1621,5.4977,84.4224,275.6858,0,U,60276,999,8139,.36445E-3,.10433E-3,0
STARLINK-32135,2024-131Y,2026-01-01T10:30:48.047040,15.30198592,.0001235,53.1617,4.6914,108.2701,251.8434,0,U,60277,999,8142,.48834E-4,.1087E-4,0
STARLINK-32156,2024-132A,2026-01-01T07:09:04.233024,15.30176493,.0001192,53.1618,5.3745,100.4456,259.6679,0,U,60278,999,8246,-.39334E-4,-.1523E-4,0
STARLINK-32010,2024-132B,2026-01-01T07:56:09.989952,15.30189550,.0001407,53.1622,5.5812,83.3796,276.7365,0,U,60279,999,8124,.25557E-4,.398E-5,0
STARLINK-32118,2024-132C,2026-01-01T06:59:56.234112,15.30194044,.0001636,53.1630,5.3336,115.1738,244.9432,0,U,60280,999,8124,.65854E-4,.1591E-4,0
STARLINK-32038,2024-132D,2026-01-01T07:02:58.486272,15.30194322,.0001322,53.1623,5.3485,95.9507,264.1645,0,U,60281,999,8124,.48117E-4,.1066E-4,0
STARLINK-32113,2024-132E,2026-01-01T22:45:02.269152,15.30190403,.00012444,53.1613,2.3173,87.7897,272.3246,0,U,60282,999,8134,-.19852456E-4,-.947E-5,0
STARLINK-32037,2024-132F,2026-01-01T10:41:28.047264,15.30195801,.0001248,53.1617,4.8698,109.6521,250.4614,0,U,60283,999,8126,.3676E-4,.73E-5,0
STARLINK-32123,2024-132G,2026-01-01T09:12:40.940352,15.30234053,.0001355,53.1605,352.4276,97.8346,262.2809,0,U,60284,999,8143,.43157E-3,.12457E-3,0
STARLINK-32122,2024-132H,2026-01-01T23:04:48.050400,15.30199428,.00010028,53.1622,2.4069,87.9250,272.1865,0,U,60285,999,8134,-.12512029E-3,-.4063E-4,0
STARLINK-31656,2024-132J,2026-01-02T00:05:25.062720,15.30188619,.00014098,53.1618,1.9605,65.0383,295.0764,0,U,60286,999,8135,-.36484426E-4,-.1439E-4,0
